{
"type": "FeatureCollection",
"name": "up_rice_farms_with_ndvi",
"crs": { "type": "name", "properties": { "name": "urn:ogc:def:crs:OGC:1.3:CRS84" } },
"features": [
{ "type": "Feature", "properties": { "farm_id": "f001", "area_ha": 1.836, "ndvi_mean": 0.17223662596482497, "ndvi_min": 0.11326037347316742, "ndvi_max": 0.39217117428779602, "ndvi_std": 0.054202815608972235, "pixel_count": 208.0 }, "geometry": { "type": "Polygon", "coordinates": [ [ [ 81.933164, 27.078858 ], [ 81.933516, 27.079687 ], [ 81.931841, 27.080351 ], [ 81.931459, 27.079481 ], [ 81.933164, 27.078858 ] ] ] } },
{ "type": "Feature", "properties": { "farm_id": "f002", "area_ha": 1.639, "ndvi_mean": 0.14917432424184437, "ndvi_min": 0.10891088843345642, "ndvi_max": 0.38520130515098572, "ndvi_std": 0.045761945883811286, "pixel_count": 185.0 }, "geometry": { "type": "Polygon", "coordinates": [ [ [ 81.933, 27.08071 ], [ 81.933763, 27.081586 ], [ 81.933254, 27.082082 ], [ 81.932643, 27.082248 ], [ 81.932081, 27.081085 ], [ 81.933, 27.08071 ] ] ] } },
{ "type": "Feature", "properties": { "farm_id": "f003", "area_ha": 0.542, "ndvi_mean": 0.18052338772132748, "ndvi_min": 0.12190287560224533, "ndvi_max": 0.50049507617950439, "ndvi_std": 0.088839225544628239, "pixel_count": 61.0 }, "geometry": { "type": "Polygon", "coordinates": [ [ [ 81.931599, 27.081471 ], [ 81.93194, 27.082083 ], [ 81.93125, 27.082372 ], [ 81.930999, 27.081682 ], [ 81.931599, 27.081471 ] ] ] } },
{ "type": "Feature", "properties": { "farm_id": "f004", "area_ha": 0.564, "ndvi_mean": 0.1672904455839698, "ndvi_min": 0.10619468986988068, "ndvi_max": 0.42420682311058044, "ndvi_std": 0.078370085547470839, "pixel_count": 67.0 }, "geometry": { "type": "Polygon", "coordinates": [ [ [ 81.93223, 27.082567 ], [ 81.932388, 27.082912 ], [ 81.93149, 27.083379 ], [ 81.931203, 27.082825 ], [ 81.93223, 27.082567 ] ] ] } },
{ "type": "Feature", "properties": { "farm_id": "f005", "area_ha": 0.744, "ndvi_mean": 0.22885058299604669, "ndvi_min": 0.14346490800380707, "ndvi_max": 0.294841468334198, "ndvi_std": 0.033325850167405587, "pixel_count": 83.0 }, "geometry": { "type": "Polygon", "coordinates": [ [ [ 81.935479, 27.081827 ], [ 81.936057, 27.082821 ], [ 81.935628, 27.083131 ], [ 81.9355, 27.083314 ], [ 81.935108, 27.081972 ], [ 81.935479, 27.081827 ] ] ] } },
{ "type": "Feature", "properties": { "farm_id": "f006", "area_ha": 2.388, "ndvi_mean": 0.12525239167390045, "ndvi_min": 0.096941418945789337, "ndvi_max": 0.16422435641288757, "ndvi_std": 0.0097175908100364892, "pixel_count": 270.0 }, "geometry": { "type": "Polygon", "coordinates": [ [ [ 81.928021, 27.077008 ], [ 81.928414, 27.078601 ], [ 81.927173, 27.078867 ], [ 81.926781, 27.077054 ], [ 81.928021, 27.077008 ] ] ] } },
{ "type": "Feature", "properties": { "farm_id": "f007", "area_ha": 0.937, "ndvi_mean": 0.5106083492063126, "ndvi_min": 0.22299651801586151, "ndvi_max": 0.68168741464614868, "ndvi_std": 0.10381594041315691, "pixel_count": 106.0 }, "geometry": { "type": "Polygon", "coordinates": [ [ [ 81.922313, 27.083152 ], [ 81.922776, 27.084257 ], [ 81.922137, 27.084526 ], [ 81.921654, 27.083322 ], [ 81.922313, 27.083152 ] ] ] } },
{ "type": "Feature", "properties": { "farm_id": "f008", "area_ha": 1.028, "ndvi_mean": 0.13518953738005265, "ndvi_min": 0.10410095006227493, "ndvi_max": 0.31543624401092529, "ndvi_std": 0.027192546822813628, "pixel_count": 115.0 }, "geometry": { "type": "Polygon", "coordinates": [ [ [ 81.922582, 27.0821 ], [ 81.922818, 27.083045 ], [ 81.92196, 27.083221 ], [ 81.921631, 27.082174 ], [ 81.922582, 27.0821 ] ] ] } },
{ "type": "Feature", "properties": { "farm_id": "f009", "area_ha": 0.778, "ndvi_mean": 0.15788830410350452, "ndvi_min": 0.11226252466440201, "ndvi_max": 0.22752809524536133, "ndvi_std": 0.028675414510332814, "pixel_count": 88.0 }, "geometry": { "type": "Polygon", "coordinates": [ [ [ 81.924121, 27.081924 ], [ 81.924254, 27.082612 ], [ 81.923316, 27.082848 ], [ 81.923195, 27.082068 ], [ 81.924121, 27.081924 ] ] ] } },
{ "type": "Feature", "properties": { "farm_id": "f010", "area_ha": 1.065, "ndvi_mean": 0.13781964394354052, "ndvi_min": 0.10677314549684525, "ndvi_max": 0.27667662501335144, "ndvi_std": 0.027636787632180002, "pixel_count": 124.0 }, "geometry": { "type": "Polygon", "coordinates": [ [ [ 81.919345, 27.087369 ], [ 81.91962, 27.087961 ], [ 81.918459, 27.088538 ], [ 81.918085, 27.087798 ], [ 81.919345, 27.087369 ] ] ] } },
{ "type": "Feature", "properties": { "farm_id": "f011", "area_ha": 1.438, "ndvi_mean": 0.13003430543122468, "ndvi_min": 0.089227423071861267, "ndvi_max": 0.18829786777496338, "ndvi_std": 0.018376263921231872, "pixel_count": 162.0 }, "geometry": { "type": "Polygon", "coordinates": [ [ [ 81.916329, 27.082716 ], [ 81.916621, 27.084815 ], [ 81.916109, 27.08502 ], [ 81.91567, 27.082873 ], [ 81.916329, 27.082716 ] ] ] } },
{ "type": "Feature", "properties": { "farm_id": "f012", "area_ha": 1.668, "ndvi_mean": 0.23945328003582469, "ndvi_min": 0.12070263177156448, "ndvi_max": 0.48565873503684998, "ndvi_std": 0.071779109724460916, "pixel_count": 187.0 }, "geometry": { "type": "Polygon", "coordinates": [ [ [ 81.921056, 27.088571 ], [ 81.921444, 27.089366 ], [ 81.919909, 27.090001 ], [ 81.919357, 27.089526 ], [ 81.919924, 27.089233 ], [ 81.919847, 27.089031 ], [ 81.921056, 27.088571 ] ] ] } },
{ "type": "Feature", "properties": { "farm_id": "f013", "area_ha": 1.702, "ndvi_mean": 0.12091243267059326, "ndvi_min": 0.089820362627506256, "ndvi_max": 0.26530611515045166, "ndvi_std": 0.019854667582811288, "pixel_count": 192.0 }, "geometry": { "type": "Polygon", "coordinates": [ [ [ 81.921191, 27.082206 ], [ 81.921533, 27.083322 ], [ 81.920239, 27.083592 ], [ 81.919939, 27.082388 ], [ 81.921191, 27.082206 ] ] ] } },
{ "type": "Feature", "properties": { "farm_id": "f014", "area_ha": 3.44, "ndvi_mean": 0.13963299190875181, "ndvi_min": 0.08416389673948288, "ndvi_max": 0.46121466159820557, "ndvi_std": 0.041066143907856345, "pixel_count": 388.0 }, "geometry": { "type": "Polygon", "coordinates": [ [ [ 81.918345, 27.084405 ], [ 81.918815, 27.084332 ], [ 81.919361, 27.085361 ], [ 81.917047, 27.085996 ], [ 81.91691, 27.085951 ], [ 81.916631, 27.085903 ], [ 81.916318, 27.084968 ], [ 81.916515, 27.084896 ], [ 81.918345, 27.084405 ] ] ] } },
{ "type": "Feature", "properties": { "farm_id": "f015", "area_ha": 0.825, "ndvi_mean": 0.2433052482185783, "ndvi_min": 0.17468228936195374, "ndvi_max": 0.36363637447357178, "ndvi_std": 0.034358264041291421, "pixel_count": 91.0 }, "geometry": { "type": "Polygon", "coordinates": [ [ [ 81.929967, 27.080287 ], [ 81.93012, 27.080708 ], [ 81.928962, 27.081142 ], [ 81.928913, 27.080977 ], [ 81.9287, 27.080993 ], [ 81.928494, 27.080626 ], [ 81.929967, 27.080287 ] ] ] } }
]
}
