{
"type": "FeatureCollection",
"name": "up_rice_farms_clean",
"crs": { "type": "name", "properties": { "name": "urn:ogc:def:crs:OGC:1.3:CRS84" } },
"features": [
{ "type": "Feature", "properties": { "farm_id": "f001", "area_ha": 1.836 }, "geometry": { "type": "Polygon", "coordinates": [ [ [ 81.933164, 27.078858 ], [ 81.933516, 27.079687 ], [ 81.931841, 27.080351 ], [ 81.931459, 27.079481 ], [ 81.933164, 27.078858 ] ] ] } },
{ "type": "Feature", "properties": { "farm_id": "f002", "area_ha": 1.639 }, "geometry": { "type": "Polygon", "coordinates": [ [ [ 81.933, 27.08071 ], [ 81.933763, 27.081586 ], [ 81.933254, 27.082082 ], [ 81.932643, 27.082248 ], [ 81.932081, 27.081085 ], [ 81.933, 27.08071 ] ] ] } },
{ "type": "Feature", "properties": { "farm_id": "f003", "area_ha": 0.542 }, "geometry": { "type": "Polygon", "coordinates": [ [ [ 81.931599, 27.081471 ], [ 81.93194, 27.082083 ], [ 81.93125, 27.082372 ], [ 81.930999, 27.081682 ], [ 81.931599, 27.081471 ] ] ] } },
{ "type": "Feature", "properties": { "farm_id": "f004", "area_ha": 0.564 }, "geometry": { "type": "Polygon", "coordinates": [ [ [ 81.93223, 27.082567 ], [ 81.932388, 27.082912 ], [ 81.93149, 27.083379 ], [ 81.931203, 27.082825 ], [ 81.93223, 27.082567 ] ] ] } },
{ "type": "Feature", "properties": { "farm_id": "f005", "area_ha": 0.744 }, "geometry": { "type": "Polygon", "coordinates": [ [ [ 81.935479, 27.081827 ], [ 81.936057, 27.082821 ], [ 81.935628, 27.083131 ], [ 81.9355, 27.083314 ], [ 81.935108, 27.081972 ], [ 81.935479, 27.081827 ] ] ] } },
{ "type": "Feature", "properties": { "farm_id": "f006", "area_ha": 2.388 }, "geometry": { "type": "Polygon", "coordinates": [ [ [ 81.928021, 27.077008 ], [ 81.928414, 27.078601 ], [ 81.927173, 27.078867 ], [ 81.926781, 27.077054 ], [ 81.928021, 27.077008 ] ] ] } },
{ "type": "Feature", "properties": { "farm_id": "f007", "area_ha": 0.937 }, "geometry": { "type": "Polygon", "coordinates": [ [ [ 81.922313, 27.083152 ], [ 81.922776, 27.084257 ], [ 81.922137, 27.084526 ], [ 81.921654, 27.083322 ], [ 81.922313, 27.083152 ] ] ] } },
{ "type": "Feature", "properties": { "farm_id": "f008", "area_ha": 1.028 }, "geometry": { "type": "Polygon", "coordinates": [ [ [ 81.922582, 27.0821 ], [ 81.922818, 27.083045 ], [ 81.92196, 27.083221 ], [ 81.921631, 27.082174 ], [ 81.922582, 27.0821 ] ] ] } },
{ "type": "Feature", "properties": { "farm_id": "f009", "area_ha": 0.778 }, "geometry": { "type": "Polygon", "coordinates": [ [ [ 81.924121, 27.081924 ], [ 81.924254, 27.082612 ], [ 81.923316, 27.082848 ], [ 81.923195, 27.082068 ], [ 81.924121, 27.081924 ] ] ] } },
{ "type": "Feature", "properties": { "farm_id": "f010", "area_ha": 1.065 }, "geometry": { "type": "Polygon", "coordinates": [ [ [ 81.919345, 27.087369 ], [ 81.91962, 27.087961 ], [ 81.918459, 27.088538 ], [ 81.918085, 27.087798 ], [ 81.919345, 27.087369 ] ] ] } },
{ "type": "Feature", "properties": { "farm_id": "f011", "area_ha": 1.438 }, "geometry": { "type": "Polygon", "coordinates": [ [ [ 81.916329, 27.082716 ], [ 81.916621, 27.084815 ], [ 81.916109, 27.08502 ], [ 81.91567, 27.082873 ], [ 81.916329, 27.082716 ] ] ] } },
{ "type": "Feature", "properties": { "farm_id": "f012", "area_ha": 1.668 }, "geometry": { "type": "Polygon", "coordinates": [ [ [ 81.921056, 27.088571 ], [ 81.921444, 27.089366 ], [ 81.919909, 27.090001 ], [ 81.919357, 27.089526 ], [ 81.919924, 27.089233 ], [ 81.919847, 27.089031 ], [ 81.921056, 27.088571 ] ] ] } },
{ "type": "Feature", "properties": { "farm_id": "f013", "area_ha": 1.702 }, "geometry": { "type": "Polygon", "coordinates": [ [ [ 81.921191, 27.082206 ], [ 81.921533, 27.083322 ], [ 81.920239, 27.083592 ], [ 81.919939, 27.082388 ], [ 81.921191, 27.082206 ] ] ] } },
{ "type": "Feature", "properties": { "farm_id": "f014", "area_ha": 3.44 }, "geometry": { "type": "Polygon", "coordinates": [ [ [ 81.918345, 27.084405 ], [ 81.918815, 27.084332 ], [ 81.919361, 27.085361 ], [ 81.917047, 27.085996 ], [ 81.91691, 27.085951 ], [ 81.916631, 27.085903 ], [ 81.916318, 27.084968 ], [ 81.916515, 27.084896 ], [ 81.918345, 27.084405 ] ] ] } },
{ "type": "Feature", "properties": { "farm_id": "f015", "area_ha": 0.825 }, "geometry": { "type": "Polygon", "coordinates": [ [ [ 81.929967, 27.080287 ], [ 81.93012, 27.080708 ], [ 81.928962, 27.081142 ], [ 81.928913, 27.080977 ], [ 81.9287, 27.080993 ], [ 81.928494, 27.080626 ], [ 81.929967, 27.080287 ] ] ] } }
]
}
